#dP2023 12 21  6  0  0.00000000      96 __u+U IGS20 EXT  IAC
## 2293 367200.00000000   900.00000000 60299 0.2500000000000
+  119   C06C07C08C10C11C12C13C14C16C19C20C21C22C23C24C25C26
+        C27C28C29C30C32C33C34C35C36C37C38C39C40C41C42C43C44
+        C45C46E02E03E04E05E07E08E09E10E11E12E13E14E15E18E19
+        E21E24E25E26E27E30E31E33E34E36G01G02G03G04G05G06G07
+        G08G09G10G11G12G13G14G15G16G17G18G19G20G21G22G23G24
+        G25G26G27G28G29G30G31G32J02J03J04R01R02R03R04R05R07
+        R08R09R11R12R13R14R15R16R17R18R19R20R21R22R24R25R26
++        10 11 10 13  9  9 10  9 10  9 10 10  9  9  9  9  9
++         9 10 10  9  9  9 10  9 10  9 10 10 10  8  9  9  8
++         9 10  9  9  9  8  8  9  9  9  9 10  9  9  9  9  9
++         9  9  9  9  9  9  9  9  9  9  9  9  9  8  9  9  8
++         8  9  9  9  9  8  9  8  9  9  9  8  9  9  9  9  8
++         8  9  9  9  9  8  9  9 11 10 11  9 10  9  9 10  9
++         9  9  9  9  9  9  9  9  9  9 10 10  9  8 10  9  9
%c M  cc GPS ccc cccc cccc cccc cccc ccccc ccccc ccccc ccccc
%c cc cc ccc ccc cccc cccc cccc cccc ccccc ccccc ccccc ccccc
%f  0.0000000  0.000000000  0.00000000000  0.000000000000000
%f  0.0000000  0.000000000  0.00000000000  0.000000000000000
%i    0    0    0    0      0      0      0      0         0
%i    0    0    0    0      0      0      0      0         0
/* IAC                                ULTRA-RAPID PREDICTION
/* S/V CLOCKS ARE ALIGNED TO GNSS TIME                      
/* G:C1WC2W R:C1PC2P E:C1XC5X C:C2IC6I J:C1CC2S             
/* PCV:IGS20_2290 OL/AL:FES2004  NONE     YN ORB:CoN CLK:CoN
*  2023 12 21 17 30  0.00000000
PC06 -14082.282762  23482.807876 -32103.835743    219.987990
PC07 -11959.363702  40199.965875   3349.865823   -510.965478
PC08   2952.317560  31908.526549  27529.279106    165.899477
PC10  -5827.661190  40356.395099   9858.633108    -62.209918
PC11  22427.037206   4266.944902  16135.070464    317.920629
PC12   4742.115870  14741.568779  23262.058647    818.968617
PC13   7204.228719  34595.528525  23382.494021    398.418023
PC14  13586.736177   9781.021677 -22306.344253   -200.882032
PC16 -15734.639073  22621.499605 -31771.951248   -238.343706
PC19 -15959.468691   1129.036630  22883.862275   -948.890916
PC20  -9832.221888 -17727.020829  19197.138489      8.176022
PC21  -2873.599723  27527.095718  -3486.923834   -966.648548
PC22 -13279.393352  20426.876463  13585.596445   -177.892232
PC23  14623.352835  -8548.449415  22173.772367   -800.570426
PC24  18768.618999  20236.136855  -4251.921963    714.339609
PC25  23568.200102   7082.775947  13164.328917    283.359879
PC26   4244.994417  20614.752082 -18362.910847   -223.457292
PC27   4841.182802 -17367.912491 -21311.132100    245.445881
PC28  20991.727169 -14979.878300 -10655.728644    185.812436
PC29 -26290.378870   3578.658487  -8650.955284    217.571473
PC30 -14604.250723 -10464.653114 -21361.182782    -11.050796
PC32   2705.484068 -27570.176224   3406.411625   -544.964633
PC33  15959.937379  -1131.800508 -22863.403063   -941.776950
PC34  15967.631900   9579.305268  20771.272658    329.867795
PC35 -20410.541837  15804.914663  10640.857568    475.507005
PC36 -23491.742426  -8261.960997 -12567.905859    -83.881952
PC37  -3145.002961 -20467.520661  18695.712709   -931.673645
PC38  -4395.330627  28227.697914  31121.803533    125.494021
PC39 -20727.450944  22437.164019 -29106.782948     -6.237255
PC40 -19018.040110  37459.584112   1333.196629    -48.778752
PC41  13483.017619 -19892.868469 -14139.058690   -874.613880
PC42   9029.791690  19058.476998 -18223.808784   -477.359035
PC43  26100.059516  -2825.816631   9426.571540     53.215394
PC44  -4384.487608  17699.387518  21124.001397    329.747944
PC45 -14172.514835   8853.571150 -22356.045782    -56.835047
PC46 -19338.232200 -19824.694958   3218.264687   -109.325656
PE02 -13262.073358 -24986.465401  -8685.753086     88.502902
PE03  -9319.796932 -14570.535194  24013.226247    -81.652895
PE04  22164.781279  -3615.485328 -19278.572195   -285.319011
PE05   8795.332989 -24101.436701  14757.211283   4702.690072
PE07 -22083.147188  19373.446254   3615.971100    -94.240496
PE08 -21853.443318   3121.727375  19711.788699   -195.710488
PE09  22105.513600 -19329.911935  -3761.735069   -271.107967
PE10  27133.242756  -1164.968583 -11779.555167   -588.091283
PE11  20464.346417  -8113.654501 -19784.026475   3272.314786
PE12  28978.062601   5253.432396  -2890.494837   -828.583763
PE13 -21034.486626   7646.522450  19385.280907    -19.731784
PE14 -19042.026830  -5570.728845 -20267.067254    -11.866997
PE15 -28980.136848  -5550.100981   2393.307716    -75.914515
PE18  25209.566064 -11323.180907  10151.258751    120.595582
PE19   7045.355493  16287.754414 -23689.539039   -969.907016
PE21   1375.523064  28082.097479  -9274.936693   -569.972013
PE24  12259.150262 -14443.215988  22719.092563   -498.414118
PE25  -1097.625207 -27967.501538   9617.457954     -1.648356
PE26   -200.590565  16472.553209  24604.796585    316.282107
PE27 -11913.243350  14963.115623 -22597.431426   -229.764526
PE30 -18073.774492  -7186.364281 -22320.863239   -760.338404
PE31  18038.270206   6844.683679  22453.843191    -12.159347
PE33  19333.313632  15488.763322  16217.303507      4.598441
PE34 -19852.501051 -15275.326078 -15759.329503    -84.612776
PE36    917.202348 -16162.974128 -24770.874259   -160.851901
PG01 -19128.547959 -13806.028927 -12892.805054    164.342399
PG02 -14013.212539 -14169.824784 -17167.786566   -512.342117
PG03 -11719.045926 -22687.965958   7360.216235     71.018121
PG04  -9306.736114 -12041.740397  21769.928028    245.500194
PG05   5634.675685  25504.186745   4369.787226   -154.980024
PG06 -17204.068342   8222.606992  18608.614278    470.919054
PG07 -26166.863777  -5723.354400   -899.136707    -17.621055
PG08  -2274.175165 -17966.363460 -19366.308021   -158.146922
PG09 -17961.305818   -640.213362  19489.499388     33.843582
PG10  12784.543380  -7852.799978 -21685.672641    -66.218288
PG11  -6187.245021  13888.241151  21799.509866   -509.744968
PG12  10024.151824  23593.963499   6811.589149   -459.787481
PG13  -9038.821762  20113.942016 -14847.717800    607.967595
PG14 -15005.626694   3880.370696 -21546.593169    277.116541
PG15   4551.870404  18199.433415 -19212.468991    109.222326
PG16   1747.002034 -24417.641552   9382.511101   -399.809570
PG17 -21890.267364  11403.501863  -9558.487398    721.581287
PG18  26064.491473   4605.365103  -3179.766744   -512.195455
PG19 -20773.724687  16175.556441  -1616.582665    415.614743
PG20  -2437.868820  21064.071254  16157.059157    395.507770
PG21 -10608.032741 -15001.777590 -19007.326556    140.863842
PG22 -11781.299337  12287.289625 -20026.081410     62.035017
PG23  16256.532716   5999.046029 -20166.968872    120.271781
PG24  13543.217735  15199.861029 -17671.962253   -398.105550
PG25  15987.574963  14350.912014  15459.646331    482.357458
PG26   6548.562721 -18845.226029  17215.324480    207.346752
PG27  10289.545812 -21849.781880 -10811.252205    -85.766869
PG28  19486.016526  -7614.168409  16334.371835    -76.187553
PG29  17199.337270   2827.280115  20025.446989   -609.568827
PG30 -24100.864299   2457.701590 -11069.366000   -454.831235
PG31  12039.745943 -11780.803718  20419.637865   -226.763602
PG32  20623.001863 -14945.076353  -6950.045533   -598.427869
PJ02 -20898.106697  26628.501505 -20456.063215     -0.683159
PJ03 -28529.451762  25539.680993  22959.762319    -12.926852
PJ04 -28813.459445  28917.171134  16395.038016     74.732663
PR01   9119.349248   6783.219653 -22836.325425     72.664972
PR02  13679.180364 -11346.217994 -18222.112978    -22.341225
PR03  10464.707405 -23017.804094  -3051.137941     91.345547
PR04   1912.199077 -21619.103176  13412.743583    216.310150
PR05  -7834.698557  -8680.260452  22675.482751    124.149821
PR07 -10228.734816  23290.712784   2307.158250     71.843535
PR08  -1647.002137  21608.703197 -13429.925789    -73.758731
PR09 -14670.782427  -1252.260744 -20836.353765    159.998662
PR11  10114.868934  20562.983329 -11182.848975   -222.730858
PR12  18095.659171  16105.974826   8035.868798     34.720113
PR13  15498.646353   3640.024116  19912.331115    -42.511166
PR14   2496.987124 -13418.040847  21558.726195     25.796449
PR15 -10844.636563 -20874.905875   9880.602644     83.770747
PR16 -18115.439050 -16230.790517  -7733.872292     21.753512
PR17  14443.739752 -10546.451480 -18190.650450     45.479110
PR18  -3078.577634 -10133.482305 -23184.208549    118.020472
PR19 -17672.546012  -5906.935481 -17410.077834   -259.133896
PR20 -25202.566655   3555.760323   2006.252692   -105.547379
PR21 -13978.972912  10461.443756  18592.064850    -62.750156
PR22   3891.246614  10487.294384  22955.516228     99.363942
PR24  24926.567122  -4830.312738  -2509.341650    -36.823629
PR25 -14729.718558  10193.632965  18161.695278      3.905664
PR26  -1905.231057  21916.667745 -12876.983607    -22.912597
EOF
